NUSAT-1 (FRESCO)        
1 41557U 16033B   22217.58510600  .00006354  00000+0  18535-3 0  9996
2 41557  97.3902 315.4045 0010440 193.3707 218.0531 15.35653615344927
BEESAT-4                
1 41619U 16040W   22217.37341126  .00007817  00000+0  25333-3 0  9994
2 41619  97.2132 266.7242 0007415 306.6146  53.4414 15.32243835328212
CAS-2T & KS-1Q          
1 41847U 16066G   22217.16853932  .00000444  00000+0  75472-4 0  9994
2 41847  98.5481 281.7784 0364505  64.2731 299.5611 14.38675966301354
NAYIF-1 (EO-88)         
1 42017U 17008BX  22217.18563483  .00009992  00000+0  28767-3 0  9993
2 42017  97.2654 282.6292 0006288  80.1792 280.0162 15.35937927304558
ZHUHAI-1 02 (CAS-4B)    
1 42759U 17034B   22217.59382878  .00001374  00000+0  91033-4 0  9990
2 42759  43.0176  61.7780 0010145 245.3815 210.5031 15.12181892283797
ZHUHAI-1 01 (CAS-4A)    
1 42761U 17034D   22217.61540796  .00001719  00000+0  11034-3 0  9996
2 42761  43.0178  60.4096 0010575 246.3085 147.6943 15.12271064283800
MAX VALIER SAT          
1 42778U 17036P   22217.32915938  .00004563  00000+0  17118-3 0  9997
2 42778  97.2019 256.7628 0011947 144.8726 215.3303 15.27646984284360
RADFXSAT (FOX-1B)       
1 43017U 17073E   22217.40531176  .00002929  00000+0  22155-3 0  9993
2 43017  97.6688 109.5889 0248536  27.8627 333.5643 14.81704674254360
FOX-1D (AO-92)          
1 43137U 18004AC  22217.48058176  .00005541  00000+0  19239-3 0  9995
2 43137  97.3662 292.2167 0007755 176.0152 184.1152 15.30151808253844
DIWATA-2B               
1 43678U 18084H   22217.46750449  .00000504  00000+0  55214-4 0  9991
2 43678  97.9773 351.3258 0011075 119.8483 240.3855 14.92238696205168
ES'HAIL 2               
1 43700U 18090A   22217.30081275  .00000151  00000+0  00000+0 0  9997
2 43700   0.0143  89.8952 0001722  80.6475 277.3616  1.00271555 13515
FOX-1CLIFF (AO-95)      
1 43770U 18099N   22217.40002522  .00001755  00000+0  15857-3 0  9993
2 43770  97.6183 282.4778 0015829 110.1004 250.1923 14.96630057200338
ITASAT 1                
1 43786U 18099AE  22217.38896283  .00001219  00000+0  11135-3 0  9992
2 43786  97.6204 283.4119 0016317 104.1284 256.1752 14.96746230200376
JY1SAT (JO-97)          
1 43803U 18099AX  22217.18938685  .00001525  00000+0  13615-3 0  9998
2 43803  97.6165 282.9868 0016193 103.9866 256.3158 14.97283452200366
UWE-4                   
1 43880U 18111E   22217.55455077  .00001958  00000+0  16894-3 0  9990
2 43880  97.6640 123.0062 0013009 147.3014 212.9016 14.98369871197053
NEXUS (FO-99)           
1 43937U 19003F   22217.50883031  .00007099  00000+0  23313-3 0  9990
2 43937  97.1278 248.9751 0019059 343.8179  16.2452 15.31693554197488
PSAT2 (NO-104)          
1 44354U 19036R   22217.25336737  .00037353 -58423-5  29927-3 0  9990
2 44354  28.5226 198.7489 0214415 162.9848 197.8076 15.44363161172224
JAISAT-1                
1 44419U 19038F   22217.42524944  .00004349  00000+0  21681-3 0  9991
2 44419  97.6387 187.9719 0017792 327.3096  32.7035 15.17959063170488
DUCHIFAT-3              
1 44854U 19089C   22217.52637687  .00001334  00000+0  10773-3 0  9991
2 44854  36.9657 169.3605 0009393 264.8729  95.0987 15.01330835145316
CAS-6 (TO-108)          
1 44881U 19093C   22217.53697033  .00000206  00000+0  32792-4 0  9991
2 44881  97.8922 296.0411 0015792  31.1283 329.0863 14.81774978142047
RS-44 & BREEZE-KM R/B   
1 44909U 19096E   22217.44563631  .00000025  00000+0  58709-4 0  9996
2 44909  82.5210 197.7266 0216810 204.9171 154.1341 12.79714198121772
ORBITAL FACTORY 2 (OF-2)
1 45113U 19071C   22217.28517869  .00018047  00000+0  35232-3 0  9999
2 45113  51.6368 178.7089 0009717   1.4315 358.6699 15.47502965140930
HUSKYSAT-1 (HO-107)     
1 45119U 19071J   22217.45340579  .00015250  00000+0  31153-3 0  9997
2 45119  51.6365 178.3035 0009426 358.0270   2.0678 15.46323721140946
BY70-2                  
1 45857U 20042B   22217.50776971  .00002695  00000+0  36033-3 0  9992
2 45857  97.9553 293.8955 0009043 323.9957  36.0648 14.80306691112711
SALSAT                  
1 46495U 20068K   22217.44305283  .00001288  00000+0  95740-4 0  9994
2 46495  97.7314 158.7682 0018019 109.9524 250.3645 15.04679241101553
BY70-3                  
1 46839U 20079N   22217.60920123  .00012529  00000+0  27861-3 0  9990
2 46839  97.1952 289.1140 0006597 143.1797 351.4413 15.43771595 97823
RADFXSAT-2 (AO-109)     
1 47311U 21002C   22217.42566614  .00005685  00000+0  22883-3 0  9998
2 47311  60.6844 177.8035 0025602  14.7599 345.4231 15.25908480 85936
UVSQ-SAT                
1 47438U 21006AB  22217.12604550  .00002952  00000+0  15613-3 0  9998
2 47438  97.4339 275.1431 0013485 105.2942 254.9783 15.16154331 84651
DIY-1 (ARDUIQUBE)       
1 47963U 21022AH  22217.25063443  .00008696  00000+0  47148-3 0  9992
2 47963  97.5267 118.0756 0015350 331.7049  28.3348 15.14719551 74330
XW-3 (CAS-9)            
1 50466U 21131B   22217.48769192 -.00000028  00000+0  54745-5 0  9999
2 50466  98.5792 294.7160 0004555  19.9937 340.1427 14.38512727 31969
TEVEL-3                 
1 50988U 22002E   22217.58607316  .00003129  00000+0  17134-3 0  9999
2 50988  97.4788 283.7576 0007975 250.1718 221.0875 15.14937027 30855
TEVEL-8                 
1 50989U 22002F   22217.59193050  .00003042  00000+0  16694-3 0  9990
2 50989  97.4800 283.7869 0008019 249.2098 216.9320 15.14883600 30851
TEVEL-5                 
1 50998U 22002Q   22217.59046736  .00003148  00000+0  17000-3 0  9997
2 50998  97.4776 283.8821 0009618 244.8141 221.9349 15.15422710 30868
TEVEL-6                 
1 50999U 22002R   22217.58989694  .00003176  00000+0  17142-3 0  9994
2 50999  97.4772 283.8793 0009556 245.0033 221.2743 15.15427115 30862
TEVEL-1                 
1 51013U 22002AF  22217.58811953  .00003131  00000+0  17156-3 0  9990
2 51013  97.4783 283.7404 0007942 248.8201 217.2531 15.14911591 30859
TEVEL-7                 
1 51062U 22002CG  22217.46548740  .00002983  00000+0  16382-3 0  9996
2 51062  97.4796 283.6494 0007913 248.8106 239.4395 15.14873097 30837
TEVEL-4                 
1 51063U 22002CH  22217.46586413  .00002973  00000+0  16328-3 0  9995
2 51063  97.4797 283.6473 0008020 248.9256 237.3881 15.14864469 30833
TEVEL-2                 
1 51069U 22002CP  22217.45762832  .00003075  00000+0  16847-3 0  9991
2 51069  97.4788 283.6192 0007979 249.7037 234.7096 15.14928130 30830
